{
    "links": {
        "self": "http://www.neowsapp.com/rest/v1/neo/3506988?api_key=iIulBulltgU6a56xZRHN4H3l9WmuAYTsLGpBGhQ2"
    },
    "id": "3506988",
    "neo_reference_id": "3506988",
    "name": "(2010 CL)",
    "designation": "2010 CL",
    "nasa_jpl_url": "http://ssd.jpl.nasa.gov/sbdb.cgi?sstr=3506988",
    "absolute_magnitude_h": 25.0,
    "estimated_diameter": {
        "kilometers": {
            "estimated_diameter_min": 0.02658,
            "estimated_diameter_max": 0.0594346868
        },
        "meters": {
            "estimated_diameter_min": 26.58,
            "estimated_diameter_max": 59.4346868419
        },
        "miles": {
            "estimated_diameter_min": 0.0165160412,
            "estimated_diameter_max": 0.0369309908
        },
        "feet": {
            "estimated_diameter_min": 87.2047272,
            "estimated_diameter_max": 194.9956979785
        }
    },
    "is_potentially_hazardous_asteroid": false,
    "close_approach_data": [
        {
            "close_approach_date": "2008-02-15",
            "close_approach_date_full": "2008-Feb-15 21:26",
            "epoch_date_close_approach": 1203110760000,
            "relative_velocity": {
                "kilometers_per_second": "17.5978065045",
                "kilometers_per_hour": "63352.1034162968",
                "miles_per_hour": "39364.5333699762"
            },
            "miss_distance": {
                "astronomical": "0.2615495231",
                "lunar": "101.7427644859",
                "kilometers": "39127251.555275797",
                "miles": "24312546.7286761186"
            },
            "orbiting_body": "Earth"
        },
        {
            "close_approach_date": "2009-10-18",
            "close_approach_date_full": "2009-Oct-18 06:01",
            "epoch_date_close_approach": 1255845660000,
            "relative_velocity": {
                "kilometers_per_second": "5.161220922",
                "kilometers_per_hour": "18580.3953190224",
                "miles_per_hour": "11545.1350803115"
            },
            "miss_distance": {
                "astronomical": "0.4287249886",
                "lunar": "166.7740205654",
                "kilometers": "64136345.110334282",
                "miles": "39852476.8676538116"
            },
            "orbiting_body": "Earth"
        },
        {
            "close_approach_date": "2010-02-02",
            "close_approach_date_full": "2010-Feb-02 21:25",
            "epoch_date_close_approach": 1265145900000,
            "relative_velocity": {
                "kilometers_per_second": "12.7498136903",
                "kilometers_per_hour": "45899.3292849274",
                "miles_per_hour": "28520.0582437372"
            },
            "miss_distance": {
                "astronomical": "0.053836897",
                "lunar": "20.942552933",
                "kilometers": "8053885.11860939",
                "miles": "5004452.153173982"
            },
            "orbiting_body": "Earth"
        }
    ],
    "orbital_data": {
        "orbit_id": "8",
        "orbit_determination_date": "2017-04-06 08:58:31",
        "first_observation_date": "2010-02-06",
        "last_observation_date": "2010-02-14",
        "data_arc_in_days": 8,
        "observations_used": 26,
        "orbit_uncertainty": "8",
        "minimum_orbit_intersection": ".045239",
        "jupiter_tisserand_invariant": "4.276",
        "epoch_osculation": "2455236.5",
        "eccentricity": ".3892713061168302",
        "semi_major_axis": "1.569427629572673",
        "inclination": "18.25743223002486",
        "ascending_node_longitude": "315.9936735708427",
        "orbital_period": "718.14206791205",
        "perihelion_distance": ".9584944863530777",
        "perihelion_argument": "136.237035203249",
        "aphelion_distance": "2.180360772792268",
        "perihelion_time": "2455196.861009542791",
        "mean_anomaly": "19.87077098280068",
        "mean_motion": ".5012935686203092",
        "equinox": "J2000",
        "orbit_class": {
            "orbit_class_type": "APO",
            "orbit_class_description": "Near-Earth asteroid orbits which cross the Earth’s orbit similar to that of 1862 Apollo",
            "orbit_class_range": "a (semi-major axis) > 1.0 AU; q (perihelion) < 1.017 AU"
        }
    },
    "is_sentry_object": false
}